0 DELTA 1 DEB
1 07059U 73086BB  13281.16722622 -.00000191  00000-0 -13121-2 0  7045
2 07059 101.9914 168.9161 0109199 083.4360 070.7997 12.25893326781436
0 DELTA 1 DEB
1 07059U 73086BB  13283.20128147 -.00000188  00000-0 -12802-2 0  7056
2 07059 101.9913 170.8668 0109578 079.7816 047.4939 12.25892290781687
0 DELTA 1 DEB
1 07059U 73086BB  13285.23895422 -.00000119  00000-0 -67826-3 0  7060
2 07059 101.9911 172.8214 0109916 076.1259 040.1481 12.25892777781932
0 DELTA 1 DEB
1 07059U 73086BB  13287.67375111 -.00000030  00000-0  10735-3 0  7077
2 07059 101.9911 175.1567 0110460 071.7794 345.3775 12.25893762782235
0 DELTA 1 DEB
1 07059U 73086BB  13289.96198045  .00000039  00000-0  71850-3 0  7084
2 07059 101.9910 177.3513 0110925 067.7178 003.7503 12.25894426782519
0 DELTA 1 DEB
1 07059U 73086BB  13292.25775267 -.00000057  00000-0 -12984-3 0  7093
2 07059 101.9911 179.5529 0111276 063.6366 055.4108 12.25893437782791
0 DELTA 1 DEB
1 07059U 73086BB  13294.29707573 -.00000077  00000-0 -30077-3 0  7101
2 07059 101.9910 181.5087 0111655 060.0381 055.2900 12.25893476783041
